satname,norad_id,inclination_deg,eccentricity,mean_motion_rev_per_day,perigee_km,apogee_km,l1,l2
STARLINK-1234,45190,53.0389,0.0004841,15.73937789,344.3995698310073,350.91148215467274,1 45190U 20012N   26154.54546944  .00078092  00000+0  53800-3 0  9997,2 45190  53.0389 261.6963 0004841 241.3543 118.6989 15.73937789349356
STARLINK-1269,45197,53.1574,0.0001809,15.34520828,461.10669445482745,463.5815805303728,1 45197U 20012V   26153.84132693  .00049234  00000+0  14531-2 0  9991,2 45197  53.1574   3.2208 0001809 117.5732 242.5455 15.34520828347966
STARLINK-1154,45198,53.0428,7.07e-05,15.63487093,377.11573599628264,378.0709962700539,1 45198U 20012W   26155.65464835  .00044760  00000+0  47809-3 0  9993,2 45198  53.0428 310.3285 0000707 327.6671  32.4299 15.63487093348818
STARLINK-1199,45201,53.1579,0.0001626,15.34598729,461.0004148904518,463.2248640732114,1 45201U 20012Z   26155.70113814  .00039885  00000+0  11779-2 0  9990,2 45201  53.1579 338.7927 0001626 214.8986 145.1910 15.34598729348498
STARLINK-1209,45206,53.0387,0.0007554,15.6535869,367.10815907542565,377.3065793484311,1 45206U 20012AE  26154.59993080  .00050137  00000+0  49581-3 0  9998,2 45206  53.0387 275.7734 0007554 223.0846 136.9578 15.65358690348312
STARLINK-1231,45212,53.0396,0.0003306,15.27628545,480.6354786268903,485.17199876331506,1 45212U 20012AL  26155.73585405  .00040064  00000+0  14684-2 0  9993,2 45212  53.0396 333.8023 0003306  74.3271 285.8092 15.27628545348509
STARLINK-1271,45217,53.1577,0.0001336,15.34659208,461.01909450359653,462.84676118831703,1 45217U 20012AR  26153.81045730  .00044830  00000+0  13191-2 0  9994,2 45217  53.1577 347.7596 0001336 205.5497 154.5440 15.34659208348208
STARLINK-1191,45222,53.1567,0.0003028,15.38857742,447.4184814274213,451.5532898469646,1 45222U 20012AW  26155.68720097  .00063685  00000+0  16288-2 0  9992,2 45222  53.1567 312.0732 0003028 193.9578 166.1343 15.38857742348871
STARLINK-1212,45223,53.0403,0.000152,15.66810387,367.01170839630413,369.0625453308703,1 45223U 20012AX  26155.83342996  .00056564  00000+0  52734-3 0  9993,2 45223  53.0403 285.3512 0001520 114.6618 245.4556 15.66810387349242
STARLINK-1215,45225,53.1577,0.0001675,15.34795536,460.3822324759749,462.6735202095506,1 45225U 20012AZ  26154.65664449  .00045331  00000+0  13279-2 0  9994,2 45225  53.1577 318.0719 0001675 264.5919  95.4892 15.34795536348653
STARLINK-1221,45227,53.0636,0.000217,15.44707416,430.7600566577048,433.7157593677821,1 45227U 20012BB  26154.45441699  .00019268  00000+0  41417-3 0  9990,2 45227  53.0636 222.3082 0002170 304.6441  55.4360 15.44707416349958
STARLINK-1222,45228,53.0534,0.0001919,15.54916354,401.09460462651714,403.69697311088385,1 45228U 20012BC  26155.67398394  .00032889  00000+0  48839-3 0  9998,2 45228  53.0534 284.0854 0001919   7.7164 352.3875 15.54916354349135
STARLINK-1226,45229,53.1568,0.0002547,15.43756968,433.29761181585036,436.76824057625527,1 45229U 20012BD  26155.74537199  .00061712  00000+0  13422-2 0  9991,2 45229  53.1568 309.2180 0002547 254.1076 105.9650 15.43756968348812
STARLINK-1227,45230,53.1559,0.000267,15.4385938,432.91258559918333,436.5506574430756,1 45230U 20012BE  26155.69071006  .00060579  00000+0  13134-2 0  9997,2 45230  53.1559 309.5952 0002670 240.7337 119.3403 15.43859380348921
STARLINK-1246,45235,53.157,0.0002428,15.34696536,460.16127259304903,463.48275669055965,1 45235U 20012BK  26155.73643084  .00040306  00000+0  11864-2 0  9992,2 45235  53.1570 353.9841 0002428 188.5469 171.5493 15.34696536348319
STARLINK-1270,45237,53.0412,0.0001814,15.61811063,381.1993312997347,383.65206344634134,1 45237U 20012BM  26155.64673720  .00104005  00000+0  11692-2 0  9990,2 45237  53.0412 287.5449 0001814 282.0779  78.0031 15.61811063349193
STARLINK-1279,45360,53.0371,0.0007247,15.74160448,342.1475636727637,351.8950080923214,1 45360U 20019A   26154.96732230  .00084739  00000+0  57694-3 0  9994,2 45360  53.0371  34.3748 0007247 100.9223 259.2611 15.74160448344192
STARLINK-1301,45361,53.0355,0.0002624,15.77902204,334.6233929126756,338.147174207088,1 45361U 20019B   26155.90128186  .00281923  00000+0  15850-2 0  9990,2 45361  53.0355  32.4063 0002624  97.1951 262.9367 15.77902204344313
STARLINK-1262,45366,53.1535,0.0003691,15.33646058,462.4192511023157,467.4708142588397,1 45366U 20019G   26155.18417837  .00055392  00000+0  16778-2 0  9998,2 45366  53.1535 122.9974 0003691  62.8473 297.2905 15.33646058343006
STARLINK-1273,45367,53.043,0.0004969,15.56789873,393.5881319821692,400.3212180888195,1 45367U 20019H   26155.09650830  .00061220  00000+0  83944-3 0  9998,2 45367  53.0430  99.7858 0004969  55.2619 304.8859 15.56789873343303
STARLINK-1277,45369,53.0416,0.0005099,15.63699966,373.5357941069924,380.42466265649455,1 45369U 20019K   26155.13015894  .00121202  00000+0  12616-2 0  9994,2 45369  53.0416  93.8425 0005099  43.0981 317.0431 15.63699966343398
STARLINK-1281,45370,53.1549,0.0004376,15.34590761,459.14301344469186,465.1296206517727,1 45370U 20019L   26155.19813685  .00064459  00000+0  18907-2 0  9995,2 45370  53.1549 122.5898 0004376  59.1035 301.0397 15.34590761343011
STARLINK-1300,45374,53.1563,0.0004551,15.35017652,457.7556326850445,463.98049509419707,1 45374U 20019Q   26155.14625756  .00057895  00000+0  16778-2 0  9994,2 45374  53.1563 122.7465 0004551  73.4687 286.6816 15.35017652343007
STARLINK-1302,45375,53.0457,0.0005425,15.66931155,364.03087932177914,371.3501021492266,1 45375U 20019R   26155.06932588  .00056329  00000+0  52233-3 0  9998,2 45375  53.0457  90.3031 0005425  57.6525 302.5015 15.66931155343437
STARLINK-1304,45376,53.0416,0.0005459,15.62360912,377.1496947431815,384.52914519850674,1 45376U 20019S   26155.12333971  .00068973  00000+0  76387-3 0  9991,2 45376  53.0416  91.2240 0005459  66.3056 293.8529 15.62360912343422
STARLINK-1305,45377,53.0386,0.0001708,15.70989346,354.91803431202334,357.2184388208343,1 45377U 20019T   26155.03429083  .00069726  00000+0  54565-3 0  9993,2 45377  53.0386  70.4450 0001708 186.8134 173.2860 15.70989346343717
STARLINK-1319,45379,53.0376,0.0003472,15.76849651,337.04061084185105,341.7052497374434,1 45379U 20019V   26155.90389818  .00087531  00000+0  53027-3 0  9998,2 45379  53.0376  57.9669 0003472  83.9513 276.1902 15.76849651343965
STARLINK-1266,45383,53.0457,0.0001449,15.65438615,370.99951202680586,372.95569523893846,1 45383U 20019Z   26155.02021308  .00049021  00000+0  48401-3 0  9995,2 45383  53.0457  76.7758 0001449 132.9123 227.2013 15.65438615343616
STARLINK-1267,45384,53.0433,0.0006854,15.64951126,368.75183471223954,378.00681328917926,1 45384U 20019AA  26155.05062399  .00058048  00000+0  58212-3 0  9994,2 45384  53.0433  67.8374 0006854  98.3645 261.8147 15.64951126343747
STARLINK-1272,45386,53.0403,0.0007831,15.68886813,356.8051598349102,367.3616930668177,1 45386U 20019AC  26152.15222326  .00062695  00000+0  53549-3 0  9993,2 45386  53.0403  61.0495 0007831  72.9009 287.2864 15.68886813343588
STARLINK-1274,45387,53.0202,0.0008208,15.60899639,379.50591572606027,390.6083752352815,1 45387U 20019AD  26154.00002315  .00086957  00000+0  10142-2 0  9992,2 45387  53.0202  50.8667 0008208 115.8243 235.7753 15.60899639  5907
STARLINK-1280,45388,53.0357,0.0001483,15.79536761,330.75713419238946,332.7472873323013,1 45388U 20019AE  26156.00002315  .01185747  00000+0  56737-2 0  9993,2 45388  53.0357  49.8616 0001483 113.8708  10.4244 15.79536761  6002
STARLINK-1283,45389,53.0397,0.0003337,15.70775087,354.43319282698303,358.9280100941978,1 45389U 20019AF  26155.23070564  .00136908  00000+0  10677-2 0  9996,2 45389  53.0397  44.9745 0003337 104.2564 255.8824 15.70775087344089
STARLINK-1284,45390,53.0409,0.0004402,15.69445758,357.51667543753683,363.4493564995946,1 45390U 20019AG  26154.99029378  .00064463  00000+0  53839-3 0  9991,2 45390  53.0409  70.0083 0004402  35.5355 324.5954 15.69445758343701
STARLINK-1297,45395,53.0416,0.000622,15.67931258,360.6275203163914,369.0157608652853,1 45395U 20019AM  26155.95707662  .00059369  00000+0  52808-3 0  9996,2 45395  53.0416  64.2294 0006220  50.2868 309.8695 15.67931258343055
STARLINK-1307,45397,53.0525,0.0002441,15.56424642,396.36047148232956,399.66858865931044,1 45397U 20019AP  26155.02619845  .00069020  00000+0  95783-3 0  9995,2 45397  53.0525  74.3928 0002441  81.0600 279.0687 15.56424642343478
STARLINK-1255,45399,53.035,0.0005322,15.65334001,368.6857771852956,375.87091928195605,1 45399U 20019AR  26154.25798965  .00067285  00000+0  66323-3 0  9991,2 45399  53.0350  46.2956 0005322 103.5073 256.6535 15.65334001343786
STARLINK-1260,45404,53.1549,0.0005178,15.37401174,450.26005687853376,457.3352083840855,1 45404U 20019AW  26155.11792179  .00060512  00000+0  16234-2 0  9996,2 45404  53.1549  85.7488 0005178  79.4283 280.7304 15.37401174343232
STARLINK-1263,45405,53.1577,0.0004131,15.34657287,459.1130006163785,464.7642711067274,1 45405U 20019AX  26155.08138042  .00055906  00000+0  16397-2 0  9997,2 45405  53.1577  87.1014 0004131  85.2997 274.8478 15.34657287343219
STARLINK-1265,45406,53.156,0.0005066,15.37816152,449.108081893708,456.0289527238456,1 45406U 20019AY  26155.04622706  .00065609  00000+0  17347-2 0  9996,2 45406  53.1560  86.0820 0005066  64.6370 295.5158 15.37816152343226
STARLINK-1278,45408,53.0401,0.0006427,15.68729503,358.20178957326516,366.8662481008787,1 45408U 20019BA  26155.02959483  .00061914  00000+0  53263-3 0  9994,2 45408  53.0401  67.7599 0006427  69.8994 290.2714 15.68729503343464
STARLINK-1296,45412,53.1557,0.0005465,15.38010957,448.2590534376832,455.7243841273121,1 45412U 20019BE  26155.08639736  .00057673  00000+0  15180-2 0  9993,2 45412  53.1557  85.5942 0005465  63.6057 296.5508 15.38010957343233
STARLINK-1309,45414,53.0607,0.0006035,15.67800141,361.1279807245455,369.2671855664021,1 45414U 20019BG  26154.98373301  .00054300  00000+0  48634-3 0  9991,2 45414  53.0607  61.8916 0006035  43.5773 316.5718 15.67800141343526
